XRISM                   
1 57800U 23137A   23338.57931695  .00005196  00000+0  41386-3 0  9995
2 57800  31.0016 175.3053 0010034  69.5976 290.5736 14.98829879 13211
